{
    "links": {
        "self": "http://www.neowsapp.com/rest/v1/neo/3632239?api_key=iIulBulltgU6a56xZRHN4H3l9WmuAYTsLGpBGhQ2"
    },
    "id": "3632239",
    "neo_reference_id": "3632239",
    "name": "(2013 EL89)",
    "designation": "2013 EL89",
    "nasa_jpl_url": "http://ssd.jpl.nasa.gov/sbdb.cgi?sstr=3632239",
    "absolute_magnitude_h": 26.1,
    "estimated_diameter": {
        "kilometers": {
            "estimated_diameter_min": 0.0160160338,
            "estimated_diameter_max": 0.0358129403
        },
        "meters": {
            "estimated_diameter_min": 16.0160337979,
            "estimated_diameter_max": 35.8129403019
        },
        "miles": {
            "estimated_diameter_min": 0.0099518989,
            "estimated_diameter_max": 0.0222531225
        },
        "feet": {
            "estimated_diameter_min": 52.5460443254,
            "estimated_diameter_max": 117.4965270602
        }
    },
    "is_potentially_hazardous_asteroid": false,
    "close_approach_data": [
        {
            "close_approach_date": "1983-02-25",
            "close_approach_date_full": "1983-Feb-25 08:33",
            "epoch_date_close_approach": 415009980000,
            "relative_velocity": {
                "kilometers_per_second": "20.6071667769",
                "kilometers_per_hour": "74185.8003967205",
                "miles_per_hour": "46096.1713631733"
            },
            "miss_distance": {
                "astronomical": "0.3916132691",
                "lunar": "152.3375616799",
                "kilometers": "58584510.921096817",
                "miles": "36402727.0694853946"
            },
            "orbiting_body": "Earth"
        },
        {
            "close_approach_date": "2013-03-29",
            "close_approach_date_full": "2013-Mar-29 21:06",
            "epoch_date_close_approach": 1364591160000,
            "relative_velocity": {
                "kilometers_per_second": "7.8990268763",
                "kilometers_per_hour": "28436.4967545683",
                "miles_per_hour": "17669.3332195261"
            },
            "miss_distance": {
                "astronomical": "0.0094595105",
                "lunar": "3.6797495845",
                "kilometers": "1415122.622042635",
                "miles": "879316.422892963"
            },
            "orbiting_body": "Moon"
        },
        {
            "close_approach_date": "2013-03-29",
            "close_approach_date_full": "2013-Mar-29 22:43",
            "epoch_date_close_approach": 1364596980000,
            "relative_velocity": {
                "kilometers_per_second": "8.9201695404",
                "kilometers_per_hour": "32112.6103452977",
                "miles_per_hour": "19953.5272448323"
            },
            "miss_distance": {
                "astronomical": "0.0118076999",
                "lunar": "4.5931952611",
                "kilometers": "1766406.754639213",
                "miles": "1097594.2612106194"
            },
            "orbiting_body": "Earth"
        },
        {
            "close_approach_date": "2040-02-02",
            "close_approach_date_full": "2040-Feb-02 20:04",
            "epoch_date_close_approach": 2211825840000,
            "relative_velocity": {
                "kilometers_per_second": "13.6036811466",
                "kilometers_per_hour": "48973.2521277373",
                "miles_per_hour": "30430.0743568154"
            },
            "miss_distance": {
                "astronomical": "0.0611877323",
                "lunar": "23.8020278647",
                "kilometers": "9153554.422210201",
                "miles": "5687754.9732587338"
            },
            "orbiting_body": "Mars"
        },
        {
            "close_approach_date": "2040-07-09",
            "close_approach_date_full": "2040-Jul-09 08:33",
            "epoch_date_close_approach": 2225435580000,
            "relative_velocity": {
                "kilometers_per_second": "22.2038864724",
                "kilometers_per_hour": "79933.9913007106",
                "miles_per_hour": "49667.8736501554"
            },
            "miss_distance": {
                "astronomical": "0.4523471648",
                "lunar": "175.9630471072",
                "kilometers": "67670172.354618976",
                "miles": "42048295.2957988288"
            },
            "orbiting_body": "Earth"
        }
    ],
    "orbital_data": {
        "orbit_id": "13",
        "orbit_determination_date": "2017-04-06 08:46:27",
        "first_observation_date": "2013-03-14",
        "last_observation_date": "2013-07-05",
        "data_arc_in_days": 113,
        "observations_used": 48,
        "orbit_uncertainty": "7",
        "minimum_orbit_intersection": ".00110738",
        "jupiter_tisserand_invariant": "3.731",
        "epoch_osculation": "2459000.5",
        "eccentricity": ".5035715535733113",
        "semi_major_axis": "1.945598754796672",
        "inclination": ".489926166824431",
        "ascending_node_longitude": "184.5514821094",
        "orbital_period": "991.2389211193063",
        "perihelion_distance": ".9658505672134117",
        "perihelion_argument": "33.53382376827684",
        "aphelion_distance": "2.925346942379931",
        "perihelion_time": "2459377.923943919718",
        "mean_anomaly": "222.9264681640314",
        "mean_motion": ".3631818649670134",
        "equinox": "J2000",
        "orbit_class": {
            "orbit_class_type": "APO",
            "orbit_class_description": "Near-Earth asteroid orbits which cross the Earth’s orbit similar to that of 1862 Apollo",
            "orbit_class_range": "a (semi-major axis) > 1.0 AU; q (perihelion) < 1.017 AU"
        }
    },
    "is_sentry_object": false
}